{
  "norad_id": 55828,
  "name": "ONEWEB-0669",
  "history": [
    {
      "epoch": "2026-03-28T19:06:27.461088Z",
      "apogee_km": 1182.6171794882866,
      "perigee_km": 1180.9248184836333,
      "latitude_deg": -3.637041181641816e-05,
      "longitude_deg": 177.67271919457156,
      "height_km": 1184.787791036708,
      "semi_major_axis_km": 7559.907998985959,
      "eccentricity": 0.00011193,
      "inclination_deg": 87.9135,
      "raan_deg": 290.4986,
      "arg_perigee_deg": 97.8429,
      "mean_anomaly_deg": 262.2831,
      "mean_motion_rev_day": 13.20772435
    },
    {
      "epoch": "2026-03-29T02:22:49.034496Z",
      "apogee_km": 1182.614725982723,
      "perigee_km": 1180.9303781345243,
      "latitude_deg": 4.559630487219728e-05,
      "longitude_deg": 68.22355543294857,
      "height_km": 1184.7986969940428,
      "semi_major_axis_km": 7559.909552058623,
      "eccentricity": 0.0001114,
      "inclination_deg": 87.9136,
      "raan_deg": 290.438,
      "arg_perigee_deg": 98.5232,
      "mean_anomaly_deg": 261.6028,
      "mean_motion_rev_day": 13.20772028
    },
    {
      "epoch": "2026-03-30T02:00:59.035968Z",
      "apogee_km": 1182.6233433735997,
      "perigee_km": 1180.9223636565603,
      "latitude_deg": -2.6472835919976268e-05,
      "longitude_deg": 72.51427996772958,
      "height_km": 1184.8218827452458,
      "semi_major_axis_km": 7559.90985351508,
      "eccentricity": 0.0001125,
      "inclination_deg": 87.9135,
      "raan_deg": 290.2411,
      "arg_perigee_deg": 100.0009,
      "mean_anomaly_deg": 260.1251,
      "mean_motion_rev_day": 13.20771949
    },
    {
      "epoch": "2026-03-30T12:55:31.374912Z",
      "apogee_km": 1182.622074923106,
      "perigee_km": 1180.9271427404065,
      "latitude_deg": -6.707381068402716e-05,
      "longitude_deg": -91.6592825926526,
      "height_km": 1184.82846974502,
      "semi_major_axis_km": 7559.911608831756,
      "eccentricity": 0.0001121,
      "inclination_deg": 87.9134,
      "raan_deg": 290.1503,
      "arg_perigee_deg": 100.3679,
      "mean_anomaly_deg": 259.758,
      "mean_motion_rev_day": 13.20771489
    },
    {
      "epoch": "2026-03-30T20:11:52.897344Z",
      "apogee_km": 1182.6242963587965,
      "perigee_km": 1180.921502253077,
      "latitude_deg": -5.305771348520624e-06,
      "longitude_deg": 158.89176627455865,
      "height_km": 1184.8345959699964,
      "semi_major_axis_km": 7559.909899305937,
      "eccentricity": 0.00011262,
      "inclination_deg": 87.9134,
      "raan_deg": 290.0897,
      "arg_perigee_deg": 100.8568,
      "mean_anomaly_deg": 259.2692,
      "mean_motion_rev_day": 13.20771937
    },
    {
      "epoch": "2026-03-31T12:33:41.393664Z",
      "apogee_km": 1182.642999689563,
      "perigee_km": 1180.9036155259892,
      "latitude_deg": 3.537925628486733e-05,
      "longitude_deg": -87.36872321567711,
      "height_km": 1184.8428251155806,
      "semi_major_axis_km": 7559.910307607775,
      "eccentricity": 0.00011504,
      "inclination_deg": 87.9135,
      "raan_deg": 289.9533,
      "arg_perigee_deg": 101.1532,
      "mean_anomaly_deg": 258.9731,
      "mean_motion_rev_day": 13.2077183
    },
    {
      "epoch": "2026-04-01T19:28:12.903744Z",
      "apogee_km": 1182.678179961671,
      "perigee_km": 1180.8653138441632,
      "latitude_deg": -9.491431703330145e-05,
      "longitude_deg": 167.47320435841465,
      "height_km": 1184.8839698205659,
      "semi_major_axis_km": 7559.908746902916,
      "eccentricity": 0.0001199,
      "inclination_deg": 87.9133,
      "raan_deg": 289.6959,
      "arg_perigee_deg": 103.4588,
      "mean_anomaly_deg": 256.6678,
      "mean_motion_rev_day": 13.20772239
    },
    {
      "epoch": "2026-04-02T19:06:22.907808Z",
      "apogee_km": 1182.687954764394,
      "perigee_km": 1180.8539210986519,
      "latitude_deg": -3.87397651533476e-05,
      "longitude_deg": 171.76412294581692,
      "height_km": 1184.9145683585202,
      "semi_major_axis_km": 7559.907937931523,
      "eccentricity": 0.0001213,
      "inclination_deg": 87.913,
      "raan_deg": 289.4992,
      "arg_perigee_deg": 105.3266,
      "mean_anomaly_deg": 254.8001,
      "mean_motion_rev_day": 13.20772451
    },
    {
      "epoch": "2026-04-02T22:44:33.638784Z",
      "apogee_km": 1182.6957512583976,
      "perigee_km": 1180.8434229464256,
      "latitude_deg": 4.0916832137339754e-05,
      "longitude_deg": 117.03967542361228,
      "height_km": 1184.9187507002587,
      "semi_major_axis_km": 7559.906587102411,
      "eccentricity": 0.00012251,
      "inclination_deg": 87.913,
      "raan_deg": 289.4688,
      "arg_perigee_deg": 105.5283,
      "mean_anomaly_deg": 254.5986,
      "mean_motion_rev_day": 13.20772805
    },
    {
      "epoch": "2026-04-03T13:17:16.707840Z",
      "apogee_km": 1182.718530585078,
      "perigee_km": 1180.822505779518,
      "latitude_deg": 7.692831682260964e-05,
      "longitude_deg": -101.85833179586477,
      "height_km": 1184.9382838229587,
      "semi_major_axis_km": 7559.907518182298,
      "eccentricity": 0.0001254,
      "inclination_deg": 87.913,
      "raan_deg": 289.3476,
      "arg_perigee_deg": 106.3324,
      "mean_anomaly_deg": 253.7948,
      "mean_motion_rev_day": 13.20772561
    },
    {
      "epoch": "2026-04-04T14:44:32.032896Z",
      "apogee_km": 1182.7488656250425,
      "perigee_km": 1180.792361534648,
      "latitude_deg": 3.3909301337815943e-05,
      "longitude_deg": -124.92975756065694,
      "height_km": 1184.967972198435,
      "semi_major_axis_km": 7559.907613579845,
      "eccentricity": 0.0001294,
      "inclination_deg": 87.9129,
      "raan_deg": 289.1354,
      "arg_perigee_deg": 107.6263,
      "mean_anomaly_deg": 252.5012,
      "mean_motion_rev_day": 13.20772536
    },
    {
      "epoch": "2026-04-05T14:22:41.985120Z",
      "apogee_km": 1182.7512593663405,
      "perigee_km": 1180.7909751915295,
      "latitude_deg": 8.266585916832884e-06,
      "longitude_deg": -120.63892757603854,
      "height_km": 1184.9694231676147,
      "semi_major_axis_km": 7559.908117278935,
      "eccentricity": 0.00012965,
      "inclination_deg": 87.9129,
      "raan_deg": 288.9384,
      "arg_perigee_deg": 107.6493,
      "mean_anomaly_deg": 252.4782,
      "mean_motion_rev_day": 13.20772404
    },
    {
      "epoch": "2026-04-05T19:49:58.102752Z",
      "apogee_km": 1182.7531004182183,
      "perigee_km": 1180.7860127321965,
      "latitude_deg": -1.0941755255541312e-05,
      "longitude_deg": 157.27440710488486,
      "height_km": 1184.9750955291418,
      "semi_major_axis_km": 7559.906556575207,
      "eccentricity": 0.0001301,
      "inclination_deg": 87.9129,
      "raan_deg": 288.8929,
      "arg_perigee_deg": 108.0287,
      "mean_anomaly_deg": 252.0988,
      "mean_motion_rev_day": 13.20772813
    },
    {
      "epoch": "2026-04-06T01:17:14.274816Z",
      "apogee_km": 1182.760513500345,
      "perigee_km": 1180.7795154662708,
      "latitude_deg": 1.7350920904781138e-05,
      "longitude_deg": 75.18761605015031,
      "height_km": 1184.9834216907482,
      "semi_major_axis_km": 7559.907014483308,
      "eccentricity": 0.00013102,
      "inclination_deg": 87.9128,
      "raan_deg": 288.8475,
      "arg_perigee_deg": 108.3776,
      "mean_anomaly_deg": 251.75,
      "mean_motion_rev_day": 13.20772693
    },
    {
      "epoch": "2026-04-07T11:49:56.572032Z",
      "apogee_km": 1182.787677753192,
      "perigee_km": 1180.7534578248524,
      "latitude_deg": 5.6096270473401535e-05,
      "longitude_deg": -84.69524086759662,
      "height_km": 1185.0156267205336,
      "semi_major_axis_km": 7559.907567789022,
      "eccentricity": 0.00013454,
      "inclination_deg": 87.9128,
      "raan_deg": 288.5596,
      "arg_perigee_deg": 109.7664,
      "mean_anomaly_deg": 250.3615,
      "mean_motion_rev_day": 13.20772548
    },
    {
      "epoch": "2026-04-07T19:06:18.129024Z",
      "apogee_km": 1182.7948891276264,
      "perigee_km": 1180.747665966066,
      "latitude_deg": -1.7739023431860125e-05,
      "longitude_deg": 165.85565745032417,
      "height_km": 1185.0220795442553,
      "semi_major_axis_km": 7559.908277546846,
      "eccentricity": 0.0001354,
      "inclination_deg": 87.9128,
      "raan_deg": 288.499,
      "arg_perigee_deg": 109.9773,
      "mean_anomaly_deg": 250.1506,
      "mean_motion_rev_day": 13.20772362
    },
    {
      "epoch": "2026-04-08T11:28:06.567456Z",
      "apogee_km": 1182.8180280599508,
      "perigee_km": 1180.723328840405,
      "latitude_deg": -3.2289217265954626e-05,
      "longitude_deg": -80.40449517330052,
      "height_km": 1185.0338789576742,
      "semi_major_axis_km": 7559.907678450178,
      "eccentricity": 0.00013854,
      "inclination_deg": 87.9129,
      "raan_deg": 288.3627,
      "arg_perigee_deg": 110.2295,
      "mean_anomaly_deg": 249.8987,
      "mean_motion_rev_day": 13.20772519
    },
    {
      "epoch": "2026-04-09T12:55:21.832032Z",
      "apogee_km": 1182.8480585620227,
      "perigee_km": 1180.6859260202282,
      "latitude_deg": -6.448627321295788e-05,
      "longitude_deg": -103.47557041708494,
      "height_km": 1185.0502948571732,
      "semi_major_axis_km": 7559.903992291125,
      "eccentricity": 0.000143,
      "inclination_deg": 87.9129,
      "raan_deg": 288.1506,
      "arg_perigee_deg": 110.7102,
      "mean_anomaly_deg": 249.4184,
      "mean_motion_rev_day": 13.20773485
    },
    {
      "epoch": "2026-04-10T05:17:10.239360Z",
      "apogee_km": 1182.8573388916075,
      "perigee_km": 1180.676760167562,
      "latitude_deg": 3.3500498534931965e-05,
      "longitude_deg": 10.264211200167377,
      "height_km": 1185.0585108980176,
      "semi_major_axis_km": 7559.904049529585,
      "eccentricity": 0.00014422,
      "inclination_deg": 87.9128,
      "raan_deg": 288.0141,
      "arg_perigee_deg": 110.9872,
      "mean_anomaly_deg": 249.1416,
      "mean_motion_rev_day": 13.2077347
    }
  ]
}